     2.100          NAVIGATION                              RINEX VERSION / TYPE
fic2rin                                 01/24/2013 00:13:26 PGM / RUN BY / DATE
                                                            END OF HEADER
13 13  1 23 22  0  0.0  .150253996253D-03 -.284217094304D-11  .000000000000D+00
     .220000000000D+02  .861875000000D+02  .388194741298D-08 -.297025903238D+01
     .454112887383D-05  .492622563615D-02  .963732600212D-05  .515356912994D+04
     .338400000000D+06  .167638063431D-07  .298215673007D+01  .987201929092D-07
     .983315020549D+00  .207031250000D+03  .206795404551D+01 -.756102923293D-08
    -.503592405216D-10  .100000000000D+01  .172400000000D+04  .000000000000D+00
     .240000000000D+01  .000000000000D+00 -.111758708954D-07  .220000000000D+02
     .331206000000D+06  .400000000000D+01
14 13  1 23 22  0  0.0  .219883862883D-03  .454747350886D-12  .000000000000D+00
     .840000000000D+02  .936250000000D+02  .393980696592D-08 -.282938256536D+01
     .493973493576D-05  .670465652365D-02  .104214996099D-04  .515370685196D+04
     .338400000000D+06  .128522515297D-06  .295379775589D+01 -.782310962677D-07
     .976027681391D+00  .183656250000D+03 -.201817790823D+01 -.758103006605D-08
    -.892894335490D-10  .100000000000D+01  .172400000000D+04  .000000000000D+00
     .240000000000D+01  .000000000000D+00 -.884756445885D-08  .840000000000D+02
     .331206000000D+06  .400000000000D+01
15 13  1 23 22  0  0.0 -.106071121991D-03 -.113686837722D-11  .000000000000D+00
     .410000000000D+02  .885000000000D+02  .474448334106D-08  .299224905226D+01
     .458769500256D-05  .526137789711D-02  .105723738670D-04  .515370941353D+04
     .338400000000D+06 -.838190317154D-07  .285808854663D+01 -.223517417908D-07
     .942652854121D+00  .166093750000D+03  .118376466581D+00 -.793461622290D-08
    -.163935399996D-09  .100000000000D+01  .172400000000D+04  .000000000000D+00
     .240000000000D+01  .000000000000D+00 -.102445483208D-07  .410000000000D+02
     .331206000000D+06  .400000000000D+01
16 13  1 23 22  0  0.0 -.251980964094D-03 -.227373675443D-12  .000000000000D+00
     .106000000000D+03 -.959062500000D+02  .398123726308D-08 -.164550072128D+01
    -.501796603203D-05  .686067657080D-02  .433810055256D-05  .515357169342D+04
     .338400000000D+06 -.540167093277D-07 -.125662369446D+01 -.819563865662D-07
     .983235721612D+00  .309250000000D+03  .286723209915D-01 -.792604443728D-08
    -.163578242262D-09  .100000000000D+01  .172400000000D+04  .000000000000D+00
     .340000000000D+01  .000000000000D+00 -.977888703346D-08  .106000000000D+03
     .331206000000D+06  .400000000000D+01
17 13  1 23 22  0  0.0  .567659735680D-04 -.363797880709D-11  .000000000000D+00
     .530000000000D+02 -.596562500000D+02  .397445126613D-08 -.266222416501D+01
    -.307708978653D-05  .804881053045D-02  .108946114779D-04  .515379432487D+04
     .338400000000D+06 -.204890966415D-07 -.218456658545D+00 -.577419996262D-07
     .964965789761D+00  .170093750000D+03 -.225284764751D+01 -.753674250701D-08
     .383944564261D-09  .100000000000D+01  .172400000000D+04  .000000000000D+00
     .240000000000D+01  .000000000000D+00 -.107102096081D-07  .530000000000D+02
     .331206000000D+06  .400000000000D+01
18 13  1 23 22  0  0.0  .235851388425D-03  .193267624127D-11  .000000000000D+00
     .190000000000D+02 -.145000000000D+02  .557380359986D-08 -.115157699217D+01
    -.514090061188D-06  .136783946073D-01  .695325434208D-05  .515375194359D+04
     .338400000000D+06  .203028321266D-06  .184060913706D+01  .268220901489D-06
     .927588788745D+00  .225687500000D+03 -.213090585207D+01 -.845963809217D-08
    -.404659712844D-09  .100000000000D+01  .172400000000D+04  .000000000000D+00
     .240000000000D+01  .000000000000D+00 -.107102096081D-07  .190000000000D+02
     .331206000000D+06  .400000000000D+01
19 13  1 23 22  0  0.0 -.342447776347D-03 -.329691829393D-11  .000000000000D+00
     .550000000000D+02 -.505937500000D+02  .411445709794D-08  .293061874641D+01
    -.255368649960D-05  .884340633638D-02  .103581696749D-04  .515366554642D+04
     .338400000000D+06 -.726431608200D-07 -.166173408829D+00 -.912696123123D-07
     .962251389153D+00  .181375000000D+03  .276624641064D+00 -.765067582421D-08
     .345728686702D-09  .100000000000D+01  .172400000000D+04  .000000000000D+00
     .240000000000D+01  .000000000000D+00 -.144354999065D-07  .550000000000D+02
     .331206000000D+06  .400000000000D+01
20 13  1 23 22  0  0.0  .812066718936D-04  .147792889038D-11  .000000000000D+00
     .560000000000D+02 -.162812500000D+02  .560523348047D-08 -.566951803795D+00
    -.827014446259D-06  .557800056413D-02  .697560608387D-05  .515381514359D+04
     .338400000000D+06 -.558793544769D-07  .178702487040D+01  .633299350739D-07
     .928229713636D+00  .232937500000D+03  .128305725340D+01 -.854571310611D-08
    -.314298806093D-09  .100000000000D+01  .172400000000D+04  .000000000000D+00
     .240000000000D+01  .000000000000D+00 -.791624188423D-08  .560000000000D+02
     .331206000000D+06  .400000000000D+01
21 13  1 23 22  0  0.0 -.276356004179D-03 -.227373675443D-11  .000000000000D+00
     .820000000000D+02  .183750000000D+02  .554987403167D-08 -.500165122799D-01
     .113621354103D-05  .197184804128D-01  .647082924843D-05  .515373248291D+04
     .338400000000D+06 -.633299350739D-07  .791505771770D+00  .322237610817D-06
     .931446764119D+00  .242593750000D+03 -.218413918516D+01 -.875857911569D-08
     .430732227440D-09  .100000000000D+01  .172400000000D+04  .000000000000D+00
     .240000000000D+01  .000000000000D+00 -.111758708954D-07  .820000000000D+02
     .331206000000D+06  .400000000000D+01
22 13  1 23 22  0  0.0  .156471505761D-03  .795807864051D-12  .000000000000D+00
     .640000000000D+02 -.192812500000D+02  .554023077285D-08 -.180061340881D+01
    -.972300767899D-06  .616233248729D-02  .685080885887D-05  .515365526199D+04
     .338400000000D+06  .117346644402D-06  .184347599860D+01 -.186264514923D-08
     .925329332252D+00  .225562500000D+03 -.203300108366D+01 -.835606234925D-08
    -.360372153804D-09  .100000000000D+01  .172400000000D+04  .000000000000D+00
     .340000000000D+01  .000000000000D+00 -.172294676304D-07  .640000000000D+02
     .331206000000D+06  .400000000000D+01
23 13  1 23 22  0  0.0  .120960175991D-03 -.375166564481D-11  .000000000000D+00
     .300000000000D+02  .750312500000D+02  .442589864216D-08  .249984966477D+01
     .393949449062D-05  .815895304549D-02  .993721187115D-05  .515376810074D+04
     .338400000000D+06 -.197440385818D-06  .289737308457D+01 -.558793544769D-08
     .957550506714D+00  .188812500000D+03 -.291712527427D+01 -.781996859022D-08
    -.116790579082D-09  .100000000000D+01  .172400000000D+04  .000000000000D+00
     .240000000000D+01  .000000000000D+00 -.204890966415D-07  .300000000000D+02
     .331206000000D+06  .400000000000D+01
24 13  1 23 22  0  0.0  .146217644215D-06 -.682121026330D-12  .000000000000D+00
     .600000000000D+01  .827812500000D+02  .477484174847D-08  .194221285287D+01
     .437349081039D-05  .561042688787D-03  .252388417721D-05  .515370925713D+04
     .338400000000D+06  .204890966415D-07 -.235974075430D+01  .447034835815D-07
     .959386642990D+00  .329156250000D+03 -.140246108785D-01 -.843142263117D-08
     .142863093678D-09  .100000000000D+01  .172400000000D+04  .000000000000D+00
     .240000000000D+01  .000000000000D+00  .419095158577D-08  .600000000000D+01
     .331206000000D+06  .400000000000D+01
25 13  1 23 22  0  0.0  .649630092084D-04  .272848410532D-11  .000000000000D+00
     .460000000000D+02 -.102062500000D+03  .436339603867D-08 -.337829787807D+00
    -.540167093277D-05  .205459224526D-02  .358000397682D-05  .515360154533D+04
     .338400000000D+06  .316649675369D-07 -.131180930050D+01  .540167093277D-07
     .971319316125D+00  .314250000000D+03  .567668193316D+00 -.822998566908D-08
    -.332871008271D-09  .100000000000D+01  .172400000000D+04  .000000000000D+00
     .240000000000D+01  .000000000000D+00  .512227416039D-08  .460000000000D+02
     .331206000000D+06  .400000000000D+01
26 13  1 23 22  0  0.0 -.127604231238D-03  .138697942020D-10  .000000000000D+00
     .900000000000D+01  .100281250000D+03  .376479967616D-08  .239263097971D+01
     .490061938763D-05  .210708304076D-01  .100955367088D-04  .515366443825D+04
     .338400000000D+06  .162050127983D-06  .297524382625D+01 -.284984707832D-06
     .980795435278D+00  .190187500000D+03  .121557667086D+01 -.728030325385D-08
    -.103218585183D-09  .100000000000D+01  .172400000000D+04  .000000000000D+00
     .240000000000D+01  .000000000000D+00 -.605359673500D-08  .900000000000D+01
     .331206000000D+06  .400000000000D+01
27 13  1 23 22  0  0.0 -.192238017917D-03  .375166564481D-11  .000000000000D+00
     .150000000000D+02 -.950312500000D+02  .538593863168D-08 -.173948013523D+01
    -.488758087158D-05  .574566097930D-02  .391341745853D-05  .515363016510D+04
     .338400000000D+06  .126659870148D-06 -.129576093995D+01 -.117346644402D-06
     .976182465438D+00  .313312500000D+03  .840921915636D+00 -.796890336538D-08
    -.272868508926D-09  .100000000000D+01  .172400000000D+04  .000000000000D+00
     .240000000000D+01  .630000000000D+02 -.190921127796D-07  .150000000000D+02
     .331206000000D+06  .400000000000D+01
28 13  1 23 22  0  0.0  .226169358939D-03  .341060513165D-11  .000000000000D+00
     .610000000000D+02 -.919375000000D+02  .394516433193D-08 -.189099101605D+01
    -.464357435703D-05  .186555368127D-01  .438094139099D-05  .515363780785D+04
     .338400000000D+06  .357627868652D-06 -.125021053224D+01  .102445483208D-06
     .981656526415D+00  .302125000000D+03 -.178990207039D+01 -.771389274317D-08
    -.258225041824D-09  .100000000000D+01  .172400000000D+04  .000000000000D+00
     .340000000000D+01  .000000000000D+00 -.107102096081D-07  .610000000000D+02
     .331206000000D+06  .400000000000D+01
